[{"OBJECT_NAME":"ONEWEB-0572","OBJECT_ID":"2023-004M","EPOCH":"2025-10-21T18:37:28.225632","MEAN_MOTION":13.1764807,"ECCENTRICITY":0.00019,"INCLINATION":87.9118,"RA_OF_ASC_NODE":53.2747,"ARG_OF_PERICENTER":97.0784,"MEAN_ANOMALY":263.0564,"EPHEMERIS_TYPE":0,"CLASSIFICATION_TYPE":"U","NORAD_CAT_ID":55151,"ELEMENT_SET_NO":999,"REV_AT_EPOCH":13608,"BSTAR":9.9405e-5,"MEAN_MOTION_DOT":5.1e-7,"MEAN_MOTION_DDOT":0},{"OBJECT_NAME":"ONEWEB-0573","OBJECT_ID":"2023-004N","EPOCH":"2025-10-21T18:52:12.489024","MEAN_MOTION":13.18685253,"ECCENTRICITY":0.0002577,"INCLINATION":87.9216,"RA_OF_ASC_NODE":22.8449,"ARG_OF_PERICENTER":90.7777,"MEAN_ANOMALY":269.365,"EPHEMERIS_TYPE":0,"CLASSIFICATION_TYPE":"U","NORAD_CAT_ID":55152,"ELEMENT_SET_NO":999,"REV_AT_EPOCH":13827,"BSTAR":6.9826e-5,"MEAN_MOTION_DOT":4.0e-7,"MEAN_MOTION_DDOT":0},{"OBJECT_NAME":"ONEWEB-0588","OBJECT_ID":"2023-004P","EPOCH":"2025-10-21T18:42:41.702112","MEAN_MOTION":13.18684838,"ECCENTRICITY":0.0002062,"INCLINATION":87.9225,"RA_OF_ASC_NODE":22.8355,"ARG_OF_PERICENTER":91.2822,"MEAN_ANOMALY":268.8546,"EPHEMERIS_TYPE":0,"CLASSIFICATION_TYPE":"U","NORAD_CAT_ID":55153,"ELEMENT_SET_NO":999,"REV_AT_EPOCH":13827,"BSTAR":-1.1622e-5,"MEAN_MOTION_DOT":8.0e-8,"MEAN_MOTION_DDOT":0},{"OBJECT_NAME":"ONEWEB-0598","OBJECT_ID":"2023-004Q","EPOCH":"2025-10-21T19:25:09.755616","MEAN_MOTION":13.11420132,"ECCENTRICITY":0.0002234,"INCLINATION":87.8827,"RA_OF_ASC_NODE":68.5504,"ARG_OF_PERICENTER":104.513,"MEAN_ANOMALY":255.6246,"EPHEMERIS_TYPE":0,"CLASSIFICATION_TYPE":"U","NORAD_CAT_ID":55154,"ELEMENT_SET_NO":999,"REV_AT_EPOCH":13465,"BSTAR":0.00014237,"MEAN_MOTION_DOT":6.3e-7,"MEAN_MOTION_DDOT":0},{"OBJECT_NAME":"ONEWEB-0599","OBJECT_ID":"2023-004R","EPOCH":"2025-10-21T19:30:55.433376","MEAN_MOTION":13.17648853,"ECCENTRICITY":0.0001794,"INCLINATION":87.9118,"RA_OF_ASC_NODE":53.2707,"ARG_OF_PERICENTER":104.9494,"MEAN_ANOMALY":255.1836,"EPHEMERIS_TYPE":0,"CLASSIFICATION_TYPE":"U","NORAD_CAT_ID":55155,"ELEMENT_SET_NO":999,"REV_AT_EPOCH":13609,"BSTAR":-8.8627e-5,"MEAN_MOTION_DOT":-2.2e-7,"MEAN_MOTION_DDOT":0},{"OBJECT_NAME":"ONEWEB-0614","OBJECT_ID":"2023-004S","EPOCH":"2025-10-21T19:17:51.419040","MEAN_MOTION":13.11418699,"ECCENTRICITY":0.0001537,"INCLINATION":87.8826,"RA_OF_ASC_NODE":68.5609,"ARG_OF_PERICENTER":84.8139,"MEAN_ANOMALY":275.3164,"EPHEMERIS_TYPE":0,"CLASSIFICATION_TYPE":"U","NORAD_CAT_ID":55156,"ELEMENT_SET_NO":999,"REV_AT_EPOCH":13459,"BSTAR":-0.00044019,"MEAN_MOTION_DOT":-1.43e-6,"MEAN_MOTION_DDOT":0},{"OBJECT_NAME":"ONEWEB-0616","OBJECT_ID":"2023-004T","EPOCH":"2025-10-21T18:42:20.240352","MEAN_MOTION":13.17649217,"ECCENTRICITY":0.0001705,"INCLINATION":87.9114,"RA_OF_ASC_NODE":53.2679,"ARG_OF_PERICENTER":135.3427,"MEAN_ANOMALY":224.7842,"EPHEMERIS_TYPE":0,"CLASSIFICATION_TYPE":"U","NORAD_CAT_ID":55157,"ELEMENT_SET_NO":999,"REV_AT_EPOCH":13630,"BSTAR":3.199e-5,"MEAN_MOTION_DOT":2.5e-7,"MEAN_MOTION_DDOT":0},{"OBJECT_NAME":"ONEWEB-0617","OBJECT_ID":"2023-004U","EPOCH":"2025-10-21T19:00:44.718336","MEAN_MOTION":13.11418627,"ECCENTRICITY":0.0001757,"INCLINATION":87.8826,"RA_OF_ASC_NODE":68.5421,"ARG_OF_PERICENTER":86.7658,"MEAN_ANOMALY":273.3671,"EPHEMERIS_TYPE":0,"CLASSIFICATION_TYPE":"U","NORAD_CAT_ID":55158,"ELEMENT_SET_NO":999,"REV_AT_EPOCH":13461,"BSTAR":-0.0014242,"MEAN_MOTION_DOT":-4.92e-6,"MEAN_MOTION_DDOT":0},{"OBJECT_NAME":"ONEWEB-0618","OBJECT_ID":"2023-004V","EPOCH":"2025-10-21T09:51:12.912768","MEAN_MOTION":15.0953634,"ECCENTRICITY":0.00167722,"INCLINATION":86.9055,"RA_OF_ASC_NODE":274.4044,"ARG_OF_PERICENTER":98.6744,"MEAN_ANOMALY":261.6395,"EPHEMERIS_TYPE":0,"CLASSIFICATION_TYPE":"U","NORAD_CAT_ID":55159,"ELEMENT_SET_NO":999,"REV_AT_EPOCH":14619,"BSTAR":0.00044869067,"MEAN_MOTION_DOT":7.25e-5,"MEAN_MOTION_DDOT":0},{"OBJECT_NAME":"ONEWEB-0619","OBJECT_ID":"2023-004W","EPOCH":"2025-10-21T19:28:29.296416","MEAN_MOTION":13.17647829,"ECCENTRICITY":0.0001202,"INCLINATION":87.9116,"RA_OF_ASC_NODE":53.236,"ARG_OF_PERICENTER":96.8647,"MEAN_ANOMALY":263.2621,"EPHEMERIS_TYPE":0,"CLASSIFICATION_TYPE":"U","NORAD_CAT_ID":55160,"ELEMENT_SET_NO":999,"REV_AT_EPOCH":13620,"BSTAR":2.8825e-5,"MEAN_MOTION_DOT":2.4e-7,"MEAN_MOTION_DDOT":0},{"OBJECT_NAME":"ONEWEB-0620","OBJECT_ID":"2023-004X","EPOCH":"2025-10-21T18:53:25.005408","MEAN_MOTION":13.11417978,"ECCENTRICITY":0.0001828,"INCLINATION":87.8825,"RA_OF_ASC_NODE":68.5631,"ARG_OF_PERICENTER":95.8704,"MEAN_ANOMALY":264.2633,"EPHEMERIS_TYPE":0,"CLASSIFICATION_TYPE":"U","NORAD_CAT_ID":55161,"ELEMENT_SET_NO":999,"REV_AT_EPOCH":13458,"BSTAR":-0.0013238,"MEAN_MOTION_DOT":-4.56e-6,"MEAN_MOTION_DDOT":0},{"OBJECT_NAME":"ONEWEB-0621","OBJECT_ID":"2023-004Y","EPOCH":"2025-10-21T19:32:29.942880","MEAN_MOTION":13.11418842,"ECCENTRICITY":0.0001427,"INCLINATION":87.8837,"RA_OF_ASC_NODE":68.5225,"ARG_OF_PERICENTER":91.3703,"MEAN_ANOMALY":268.7588,"EPHEMERIS_TYPE":0,"CLASSIFICATION_TYPE":"U","NORAD_CAT_ID":55162,"ELEMENT_SET_NO":999,"REV_AT_EPOCH":13456,"BSTAR":0.00068686,"MEAN_MOTION_DOT":2.56e-6,"MEAN_MOTION_DDOT":0},{"OBJECT_NAME":"ONEWEB-0622","OBJECT_ID":"2023-004Z","EPOCH":"2025-10-21T19:39:50.614848","MEAN_MOTION":13.11417946,"ECCENTRICITY":0.0001924,"INCLINATION":87.8825,"RA_OF_ASC_NODE":68.5363,"ARG_OF_PERICENTER":73.3952,"MEAN_ANOMALY":286.7387,"EPHEMERIS_TYPE":0,"CLASSIFICATION_TYPE":"U","NORAD_CAT_ID":55163,"ELEMENT_SET_NO":999,"REV_AT_EPOCH":13455,"BSTAR":0.001353,"MEAN_MOTION_DOT":4.92e-6,"MEAN_MOTION_DDOT":0},{"OBJECT_NAME":"ONEWEB-0623","OBJECT_ID":"2023-004AA","EPOCH":"2025-10-21T19:21:13.472352","MEAN_MOTION":13.17648128,"ECCENTRICITY":0.0001413,"INCLINATION":87.9109,"RA_OF_ASC_NODE":53.2905,"ARG_OF_PERICENTER":70.9638,"MEAN_ANOMALY":289.1646,"EPHEMERIS_TYPE":0,"CLASSIFICATION_TYPE":"U","NORAD_CAT_ID":55164,"ELEMENT_SET_NO":999,"REV_AT_EPOCH":13619,"BSTAR":0.00069571,"MEAN_MOTION_DOT":2.83e-6,"MEAN_MOTION_DDOT":0},{"OBJECT_NAME":"ONEWEB-0624","OBJECT_ID":"2023-004AB","EPOCH":"2025-10-21T19:29:43.075968","MEAN_MOTION":13.12917152,"ECCENTRICITY":0.0001596,"INCLINATION":87.8958,"RA_OF_ASC_NODE":37.9881,"ARG_OF_PERICENTER":92.4859,"MEAN_ANOMALY":267.6453,"EPHEMERIS_TYPE":0,"CLASSIFICATION_TYPE":"U","NORAD_CAT_ID":55165,"ELEMENT_SET_NO":999,"REV_AT_EPOCH":13679,"BSTAR":0.0010138,"MEAN_MOTION_DOT":3.8e-6,"MEAN_MOTION_DDOT":0},{"OBJECT_NAME":"ONEWEB-0625","OBJECT_ID":"2023-004AC","EPOCH":"2025-10-21T19:06:36.959040","MEAN_MOTION":13.17648897,"ECCENTRICITY":0.0001656,"INCLINATION":87.9108,"RA_OF_ASC_NODE":53.2881,"ARG_OF_PERICENTER":104.4026,"MEAN_ANOMALY":255.729,"EPHEMERIS_TYPE":0,"CLASSIFICATION_TYPE":"U","NORAD_CAT_ID":55166,"ELEMENT_SET_NO":999,"REV_AT_EPOCH":13618,"BSTAR":-0.00011279,"MEAN_MOTION_DOT":-3.1e-7,"MEAN_MOTION_DDOT":0},{"OBJECT_NAME":"ONEWEB-0626","OBJECT_ID":"2023-004AD","EPOCH":"2025-10-21T18:52:03.614016","MEAN_MOTION":13.17649076,"ECCENTRICITY":0.0002211,"INCLINATION":87.9109,"RA_OF_ASC_NODE":53.2893,"ARG_OF_PERICENTER":102.3692,"MEAN_ANOMALY":257.7687,"EPHEMERIS_TYPE":0,"CLASSIFICATION_TYPE":"U","NORAD_CAT_ID":55167,"ELEMENT_SET_NO":999,"REV_AT_EPOCH":13618,"BSTAR":1.3817e-5,"MEAN_MOTION_DOT":1.8e-7,"MEAN_MOTION_DDOT":0}]
