ONEWEB-0572             
1 55151U 23004M   25294.77602113  .00000051  00000+0  99405-4 0  9991
2 55151  87.9118  53.2747 0001900  97.0784 263.0564 13.17648070136087
ONEWEB-0573             
1 55152U 23004N   25294.78625566  .00000040  00000+0  69826-4 0  9992
2 55152  87.9216  22.8449 0002577  90.7777 269.3650 13.18685253138274
ONEWEB-0588             
1 55153U 23004P   25294.77964933  .00000008  00000+0 -11622-4 0  9992
2 55153  87.9225  22.8355 0002062  91.2822 268.8546 13.18684838138273
ONEWEB-0598             
1 55154U 23004Q   25294.80914069  .00000063  00000+0  14237-3 0  9996
2 55154  87.8827  68.5504 0002234 104.5130 255.6246 13.11420132134652
ONEWEB-0599             
1 55155U 23004R   25294.81314159 -.00000022  00000+0 -88627-4 0  9994
2 55155  87.9118  53.2707 0001794 104.9494 255.1836 13.17648853136098
ONEWEB-0614             
1 55156U 23004S   25294.80406735 -.00000143  00000+0 -44019-3 0  9996
2 55156  87.8826  68.5609 0001537  84.8139 275.3164 13.11418699134599
ONEWEB-0616             
1 55157U 23004T   25294.77940093  .00000025  00000+0  31990-4 0  9995
2 55157  87.9114  53.2679 0001705 135.3427 224.7842 13.17649217136308
ONEWEB-0617             
1 55158U 23004U   25294.79218424 -.00000492  00000+0 -14242-2 0  9993
2 55158  87.8826  68.5421 0001757  86.7658 273.3671 13.11418627134619
ONEWEB-0618             
1 55159U 23004V   25294.41056612  .00007250  00000+0  44869-3 0  9998
2 55159  86.9055 274.4044 0016772  98.6744 261.6395 15.09536340146195
ONEWEB-0619             
1 55160U 23004W   25294.81145019  .00000024  00000+0  28825-4 0  9991
2 55160  87.9116  53.2360 0001202  96.8647 263.2621 13.17647829136207
ONEWEB-0620             
1 55161U 23004X   25294.78709497 -.00000456  00000+0 -13238-2 0  9995
2 55161  87.8825  68.5631 0001828  95.8704 264.2633 13.11417978134588
ONEWEB-0621             
1 55162U 23004Y   25294.81423545  .00000256  00000+0  68686-3 0  9991
2 55162  87.8837  68.5225 0001427  91.3703 268.7588 13.11418842134563
ONEWEB-0622             
1 55163U 23004Z   25294.81933582  .00000492  00000+0  13530-2 0  9998
2 55163  87.8825  68.5363 0001924  73.3952 286.7387 13.11417946134552
ONEWEB-0623             
1 55164U 23004AA  25294.80640593  .00000283  00000+0  69571-3 0  9990
2 55164  87.9109  53.2905 0001413  70.9638 289.1646 13.17648128136190
ONEWEB-0624             
1 55165U 23004AB  25294.81230412  .00000380  00000+0  10138-2 0  9999
2 55165  87.8958  37.9881 0001596  92.4859 267.6453 13.12917152136794
ONEWEB-0625             
1 55166U 23004AC  25294.79626110 -.00000031  00000+0 -11279-3 0  9994
2 55166  87.9108  53.2881 0001656 104.4026 255.7290 13.17648897136183
ONEWEB-0626             
1 55167U 23004AD  25294.78615294  .00000018  00000+0  13817-4 0  9999
2 55167  87.9109  53.2893 0002211 102.3692 257.7687 13.17649076136184
